ONEWEB-0656             
1 55817U 23029X   25124.87498538  .00000013  00000+0 -82673-6 0  9994
2 55817  87.9297 355.7222 0002286  84.3709 275.7684 13.20772411107257
ONEWEB-0657             
1 55818U 23029Y   25125.48190218 -.00000146  00000+0 -39780-3 0  9993
2 55818  87.9259  26.0331 0002355  98.6596 261.4803 13.19726364105813
ONEWEB-0658             
1 55819U 23029Z   25125.62877983 -.00000028  00000+0 -10196-3 0  9990
2 55819  87.9259  25.9375 0001343  84.5190 275.6096 13.19728415105843
ONEWEB-0660             
1 55820U 23029AA  25125.43980082  .00000230  00000+0  58486-3 0  9993
2 55820  87.9078  10.7891 0001610  69.9622 290.1680 13.14504748106548
ONEWEB-0661             
1 55821U 23029AB  25125.39859261 -.00000351  00000+0 -98041-3 0  9990
2 55821  87.9079  10.8682 0001845  69.3768 290.7560 13.14497429106500
ONEWEB-0662             
1 55822U 23029AC  25125.43345705  .00000191  00000+0  48081-3 0  9998
2 55822  87.9078  10.8675 0001558  71.8918 288.2381 13.14504163106572
ONEWEB-0663             
1 55823U 23029AD  25125.38849504 -.00000045  00000+0 -14247-3 0  9996
2 55823  87.9296 355.6765 0001444  75.1237 285.0056 13.20836098107993
ONEWEB-0664             
1 55824U 23029AE  25125.39265530 -.00000006  00000+0 -47407-4 0  9991
2 55824  87.9299 355.6958 0002040  72.5469 287.5888 13.20769631108003
